{"generatedAt":"2026-05-05T08:19:47.084492Z","satellites":[{"name":"STARLINK-37529","tle1":"1 68918U 26097Z   26124.75002315 -.02076056  12852-2 -40555-2 0  9993","tle2":"2 68918  97.2865 319.6821 0001429  94.9625 153.0213 16.00371983  1949"}]}