{
  "norad_id": 68918,
  "name": "STARLINK-37529",
  "history": [
    {
      "epoch": "2026-05-04T18:00:02.000160Z",
      "apogee_km": 274.33830493533515,
      "perigee_km": 272.43729914691266,
      "latitude_deg": -67.05394582963697,
      "longitude_deg": -10.43737901125034,
      "height_km": 299.6378238639426,
      "semi_major_axis_km": 6651.524802041124,
      "eccentricity": 0.0001429,
      "inclination_deg": 97.2865,
      "raan_deg": 319.6821,
      "arg_perigee_deg": 94.9625,
      "mean_anomaly_deg": 153.0213,
      "mean_motion_rev_day": 16.00371983
    }
  ]
}